NIMIQ 2                 
1 27632U 02062A   26198.60272074 -.00000082  00000+0  00000+0 0  9993
2 27632   9.5144  56.5743 0005366  55.8688 290.7375  1.00271669 44480
ANIK F2                 
1 28378U 04027A   26198.88751632 -.00000060  00000+0  00000+0 0  9992
2 28378   3.3652  79.0348 0003615  33.3996  31.6368  1.00271552 41575
ANIK F1R                
1 28868U 05036A   26198.60306742 -.00000086  00000+0  00000+0 0  9993
2 28868   4.3887  76.2000 0003900  19.6897 309.3187  1.00271717 46750
ANIK F3                 
1 31102U 07009A   26198.74331382 -.00000011  00000+0  00000+0 0  9991
2 31102   1.2748  83.4845 0002550  32.4305 328.5054  1.00271844 46871
NIMIQ 4                 
1 33373U 08044A   26198.89323634 -.00000229  00000+0  00000+0 0  9991
2 33373   0.0149  46.2381 0001869  58.8469  70.1829  1.00271072 65292
TELSTAR 11N             
1 34111U 09009A   26198.90205113 -.00000260  00000+0  00000+0 0  9992
2 34111   0.0168 313.9397 0002296 153.5327 115.4173  1.00272491 46555
TERRESTAR-1             
1 35496U 09035A   26198.60237407 -.00000068  00000+0  00000+0 0  9992
2 35496   5.1944  48.7674 0002504  61.3853 291.1279  1.00272954 62431
NIMIQ 5                 
1 35873U 09050A   26198.89505634 -.00000266  00000+0  00000+0 0  9999
2 35873   0.0434 253.9028 0002766 215.0032  76.3109  1.00272696 61659
SKYTERRA 1              
1 37218U 10061A   26198.53298792 -.00000129  00000+0  00000+0 0  9991
2 37218   5.1880  50.8054 0002601  27.2324 307.8454  1.00270497 57492
TELSTAR 14R             
1 37602U 11021A   26198.89444968 -.00000096  00000+0  00000+0 0  9995
2 37602   0.0902  84.7672 0008085 292.2459 164.7167  0.98984109 56145
NIMIQ 6                 
1 38342U 12026A   26198.60618743 -.00000183  00000+0  00000+0 0  9993
2 38342   0.0648 264.8180 0002773 216.2756 301.4539  1.00271456 50711
ANIK G1                 
1 39127U 13014A   26198.88812299 -.00000083  00000+0  00000+0 0  9994
2 39127   0.0417 240.6719 0001783 244.5098  22.9316  1.00271791 48560
TELSTAR 12V             
1 41036U 15068A   26198.90647115 -.00000128  00000+0  00000+0 0  9993
2 41036   0.0166  57.6720 0002193  54.6384 134.7281  1.00271154 38931
VIASAT-2                
1 42740U 17029A   26198.39662485 -.00000275  00000+0  00000+0 0  9998
2 42740   0.0201 305.1263 0000506 229.4622 193.5095  1.00271644 33508
LEO 1 (LEO VANTAGE 1)   
1 43113U 18004C   26198.85465326  .00002304  00000+0  16348-3 0  9993
2 43113  99.2411 121.1507 0349163 345.5099  13.6285 14.68038624441981
TELSTAR 19V             
1 43562U 18059A   26198.54061462 -.00000289  00000+0  00000+0 0  9995
2 43562   0.0266 145.6010 0002692 336.7624 304.6038  1.00269947 29444
TELSTAR 18V             
1 43611U 18069A   26198.65164719 -.00000303  00000+0  00000+0 0  9999
2 43611   0.0249 291.6186 0001785 186.8675 189.5709  1.00269925 28943
AMOS-17                 
1 44479U 19050A   26198.91264068  .00000101  00000+0  00000+0 0  9995
2 44479   0.0180 353.5293 0001569 135.0063 152.7572  1.00274901 25491
